{"type": "FeatureCollection", "features": [{"type": "Feature", "properties": {"norad_id": 36828, "name": "BEIDOU-2 IGSO-1 (C06)", "group": "beidou", "lat": 25.34522151742184, "lon": -175.5653701079368, "alt_km": 35999.87405790061, "timestamp": "2025-12-27T23:26:37.627587+00:00", "meta": {"OBJECT_NAME": "BEIDOU-2 IGSO-1 (C06)", "OBJECT_ID": "2010-036A", "EPOCH": "2025-12-25T21:06:51.904224", "MEAN_MOTION": 1.00272533, "ECCENTRICITY": 0.00515074, "INCLINATION": 54.2892, "RA_OF_ASC_NODE": 164.5291, "ARG_OF_PERICENTER": 215.7944, "MEAN_ANOMALY": 138.9488, "EPHEMERIS_TYPE": 0, "CLASSIFICATION_TYPE": "U", "NORAD_CAT_ID": 36828, "ELEMENT_SET_NO": 999, "REV_AT_EPOCH": 5635, "BSTAR": 0, "MEAN_MOTION_DOT": -5.2e-07, "MEAN_MOTION_DDOT": 0}, "tle": {"line1": "1 36828U 10036A   25359.87976741 -.00000052  00000+0  00000+0 0  9996", "line2": "2 36828  54.2892 164.5291 0051507 215.7944 138.9488  1.00272533 56350"}}, "geometry": {"type": "Point", "coordinates": [-175.5653701079368, 25.34522151742184]}}, {"type": "Feature", "properties": {"norad_id": 37210, "name": "BEIDOU-2 G4 (C04)", "group": "beidou", "lat": 0.06831843780115614, "lon": -111.60021404427904, "alt_km": 35743.36617130104, "timestamp": "2025-12-27T23:26:37.627610+00:00", "meta": {"OBJECT_NAME": "BEIDOU-2 G4 (C04)", "OBJECT_ID": "2010-057A", "EPOCH": "2025-12-27T13:05:37.654080", "MEAN_MOTION": 1.00271139, "ECCENTRICITY": 0.0010535, "INCLINATION": 3.2189, "RA_OF_ASC_NODE": 69.8819, "ARG_OF_PERICENTER": 194.2662, "MEAN_ANOMALY": 188.6125, "EPHEMERIS_TYPE": 0, "CLASSIFICATION_TYPE": "U", "NORAD_CAT_ID": 37210, "ELEMENT_SET_NO": 999, "REV_AT_EPOCH": 5557, "BSTAR": 0, "MEAN_MOTION_DOT": -9.1e-07, "MEAN_MOTION_DDOT": 0}, "tle": {"line1": "1 37210U 10057A   25361.54557470 -.00000091  00000+0  00000+0 0  9999", "line2": "2 37210   3.2189  69.8819 0010535 194.2662 188.6125  1.00271139 55570"}}, "geometry": {"type": "Point", "coordinates": [-111.60021404427904, 0.06831843780115614]}}, {"type": "Feature", "properties": {"norad_id": 37256, "name": "BEIDOU-2 IGSO-2 (C07)", "group": "beidou", "lat": -46.290521619515, "lon": -157.0406394367296, "alt_km": 35709.61502085934, "timestamp": "2025-12-27T23:26:37.627625+00:00", "meta": {"OBJECT_NAME": "BEIDOU-2 IGSO-2 (C07)", "OBJECT_ID": "2010-068A", "EPOCH": "2025-12-27T13:58:10.761600", "MEAN_MOTION": 1.00281592, "ECCENTRICITY": 0.0048261, "INCLINATION": 47.8585, "RA_OF_ASC_NODE": 273.9673, "ARG_OF_PERICENTER": 215.8634, "MEAN_ANOMALY": 284.1586, "EPHEMERIS_TYPE": 0, "CLASSIFICATION_TYPE": "U", "NORAD_CAT_ID": 37256, "ELEMENT_SET_NO": 999, "REV_AT_EPOCH": 5507, "BSTAR": 0, "MEAN_MOTION_DOT": -2.06e-06, "MEAN_MOTION_DDOT": 0}, "tle": {"line1": "1 37256U 10068A   25361.58206900 -.00000206  00000+0  00000+0 0  9992", "line2": "2 37256  47.8585 273.9673 0048261 215.8634 284.1586  1.00281592 55078"}}, "geometry": {"type": "Point", "coordinates": [-157.0406394367296, -46.290521619515]}}, {"type": "Feature", "properties": {"norad_id": 37384, "name": "BEIDOU-2 IGSO-3 (C08)", "group": "beidou", "lat": 23.27888763551076, "lon": -151.33260628747274, "alt_km": 35663.231479632464, "timestamp": "2025-12-27T23:26:37.627637+00:00", "meta": {"OBJECT_NAME": "BEIDOU-2 IGSO-3 (C08)", "OBJECT_ID": "2011-013A", "EPOCH": "2025-12-26T18:04:14.277792", "MEAN_MOTION": 1.00267391, "ECCENTRICITY": 0.00351191, "INCLINATION": 62.1613, "RA_OF_ASC_NODE": 41.7837, "ARG_OF_PERICENTER": 187.8187, "MEAN_ANOMALY": 244.1436, "EPHEMERIS_TYPE": 0, "CLASSIFICATION_TYPE": "U", "NORAD_CAT_ID": 37384, "ELEMENT_SET_NO": 999, "REV_AT_EPOCH": 5393, "BSTAR": 0, "MEAN_MOTION_DOT": -1.71e-06, "MEAN_MOTION_DDOT": 0}, "tle": {"line1": "1 37384U 11013A   25360.75294303 -.00000171  00000+0  00000+0 0  9998", "line2": "2 37384  62.1613  41.7837 0035119 187.8187 244.1436  1.00267391 53938"}}, "geometry": {"type": "Point", "coordinates": [-151.33260628747274, 23.27888763551076]}}, {"type": "Feature", "properties": {"norad_id": 37763, "name": "BEIDOU-2 IGSO-4 (C09)", "group": "beidou", "lat": 13.696059874680127, "lon": 177.194434862303, "alt_km": 36307.49818722395, "timestamp": "2025-12-27T23:26:37.627650+00:00", "meta": {"OBJECT_NAME": "BEIDOU-2 IGSO-4 (C09)", "OBJECT_ID": "2011-038A", "EPOCH": "2025-12-26T23:21:51.633792", "MEAN_MOTION": 1.00276208, "ECCENTRICITY": 0.01496647, "INCLINATION": 54.5847, "RA_OF_ASC_NODE": 167.22, "ARG_OF_PERICENTER": 230.2504, "MEAN_ANOMALY": 143.4727, "EPHEMERIS_TYPE": 0, "CLASSIFICATION_TYPE": "U", "NORAD_CAT_ID": 37763, "ELEMENT_SET_NO": 999, "REV_AT_EPOCH": 5292, "BSTAR": 0, "MEAN_MOTION_DOT": 7.7e-07, "MEAN_MOTION_DDOT": 0}, "tle": {"line1": "1 37763U 11038A   25360.97351428  .00000077  00000+0  00000+0 0  9996", "line2": "2 37763  54.5847 167.2200 0149664 230.2504 143.4727  1.00276208 52927"}}, "geometry": {"type": "Point", "coordinates": [177.194434862303, 13.696059874680127]}}, {"type": "Feature", "properties": {"norad_id": 37948, "name": "BEIDOU-2 IGSO-5 (C10)", "group": "beidou", "lat": -48.02100285724256, "lon": -177.2790481183796, "alt_km": 35472.17888054059, "timestamp": "2025-12-27T23:26:37.627662+00:00", "meta": {"OBJECT_NAME": "BEIDOU-2 IGSO-5 (C10)", "OBJECT_ID": "2011-073A", "EPOCH": "2025-12-26T17:38:23.606880", "MEAN_MOTION": 1.00287779, "ECCENTRICITY": 0.01096357, "INCLINATION": 47.994, "RA_OF_ASC_NODE": 273.6869, "ARG_OF_PERICENTER": 222.0715, "MEAN_ANOMALY": 318.062, "EPHEMERIS_TYPE": 0, "CLASSIFICATION_TYPE": "U", "NORAD_CAT_ID": 37948, "ELEMENT_SET_NO": 999, "REV_AT_EPOCH": 5140, "BSTAR": 0, "MEAN_MOTION_DOT": -1.46e-06, "MEAN_MOTION_DDOT": 0}, "tle": {"line1": "1 37948U 11073A   25360.73499545 -.00000146  00000+0  00000+0 0  9995", "line2": "2 37948  47.9940 273.6869 0109635 222.0715 318.0620  1.00287779 51401"}}, "geometry": {"type": "Point", "coordinates": [-177.2790481183796, -48.02100285724256]}}, {"type": "Feature", "properties": {"norad_id": 38091, "name": "BEIDOU-2 G5 (C05)", "group": "beidou", "lat": 3.0688100003337673, "lon": 146.98367547897064, "alt_km": 35836.86044921951, "timestamp": "2025-12-27T23:26:37.627675+00:00", "meta": {"OBJECT_NAME": "BEIDOU-2 G5 (C05)", "OBJECT_ID": "2012-008A", "EPOCH": "2025-12-27T11:34:13.542816", "MEAN_MOTION": 1.00270288, "ECCENTRICITY": 0.001321, "INCLINATION": 3.1436, "RA_OF_ASC_NODE": 70.6546, "ARG_OF_PERICENTER": 232.0727, "MEAN_ANOMALY": 25.7584, "EPHEMERIS_TYPE": 0, "CLASSIFICATION_TYPE": "U", "NORAD_CAT_ID": 38091, "ELEMENT_SET_NO": 999, "REV_AT_EPOCH": 5064, "BSTAR": 0, "MEAN_MOTION_DOT": 7.8e-07, "MEAN_MOTION_DDOT": 0}, "tle": {"line1": "1 38091U 12008A   25361.48210119  .00000078  00000+0  00000+0 0  9998", "line2": "2 38091   3.1436  70.6546 0013210 232.0727  25.7584  1.00270288 50642"}}, "geometry": {"type": "Point", "coordinates": [146.98367547897064, 3.0688100003337673]}}, {"type": "Feature", "properties": {"norad_id": 38250, "name": "BEIDOU-2 M3 (C11)", "group": "beidou", "lat": 40.79746448685586, "lon": -13.635689573338881, "alt_km": 21571.82164267712, "timestamp": "2025-12-27T23:26:37.627686+00:00", "meta": {"OBJECT_NAME": "BEIDOU-2 M3 (C11)", "OBJECT_ID": "2012-018A", "EPOCH": "2025-12-26T06:54:56.796768", "MEAN_MOTION": 1.86230094, "ECCENTRICITY": 0.002406, "INCLINATION": 55.9085, "RA_OF_ASC_NODE": 310.7027, "ARG_OF_PERICENTER": 275.5278, "MEAN_ANOMALY": 84.2034, "EPHEMERIS_TYPE": 0, "CLASSIFICATION_TYPE": "U", "NORAD_CAT_ID": 38250, "ELEMENT_SET_NO": 999, "REV_AT_EPOCH": 9272, "BSTAR": 0, "MEAN_MOTION_DOT": -5.6e-07, "MEAN_MOTION_DDOT": 0}, "tle": {"line1": "1 38250U 12018A   25360.28815737 -.00000056  00000+0  00000+0 0  9997", "line2": "2 38250  55.9085 310.7027 0024060 275.5278  84.2034  1.86230094 92724"}}, "geometry": {"type": "Point", "coordinates": [-13.635689573338881, 40.79746448685586]}}, {"type": "Feature", "properties": {"norad_id": 38251, "name": "BEIDOU-2 M4 (C12)", "group": "beidou", "lat": 55.08967750510443, "lon": 53.149654164234484, "alt_km": 21564.13269520964, "timestamp": "2025-12-27T23:26:37.627717+00:00", "meta": {"OBJECT_NAME": "BEIDOU-2 M4 (C12)", "OBJECT_ID": "2012-018B", "EPOCH": "2025-12-26T05:17:08.086272", "MEAN_MOTION": 1.86229697, "ECCENTRICITY": 0.0015168, "INCLINATION": 55.8099, "RA_OF_ASC_NODE": 309.9329, "ARG_OF_PERICENTER": 279.7877, "MEAN_ANOMALY": 80.0472, "EPHEMERIS_TYPE": 0, "CLASSIFICATION_TYPE": "U", "NORAD_CAT_ID": 38251, "ELEMENT_SET_NO": 999, "REV_AT_EPOCH": 9272, "BSTAR": 0, "MEAN_MOTION_DOT": -5.5e-07, "MEAN_MOTION_DDOT": 0}, "tle": {"line1": "1 38251U 12018B   25360.22023248 -.00000055  00000+0  00000+0 0  9999", "line2": "2 38251  55.8099 309.9329 0015168 279.7877  80.0472  1.86229697 92721"}}, "geometry": {"type": "Point", "coordinates": [53.149654164234484, 55.08967750510443]}}, {"type": "Feature", "properties": {"norad_id": 38775, "name": "BEIDOU-2 M6 (C14)", "group": "beidou", "lat": -50.82956542834749, "lon": 13.959183455577739, "alt_km": 21513.907710221854, "timestamp": "2025-12-27T23:26:37.627731+00:00", "meta": {"OBJECT_NAME": "BEIDOU-2 M6 (C14)", "OBJECT_ID": "2012-050B", "EPOCH": "2025-12-24T07:41:05.368128", "MEAN_MOTION": 1.86230801, "ECCENTRICITY": 0.00114872, "INCLINATION": 56.388, "RA_OF_ASC_NODE": 68.6832, "ARG_OF_PERICENTER": 343.1884, "MEAN_ANOMALY": 16.8281, "EPHEMERIS_TYPE": 0, "CLASSIFICATION_TYPE": "U", "NORAD_CAT_ID": 38775, "ELEMENT_SET_NO": 999, "REV_AT_EPOCH": 9005, "BSTAR": 0, "MEAN_MOTION_DOT": -2.4e-07, "MEAN_MOTION_DDOT": 0}, "tle": {"line1": "1 38775U 12050B   25358.32020102 -.00000024  00000+0  00000+0 0  9996", "line2": "2 38775  56.3880  68.6832 0011487 343.1884  16.8281  1.86230801 90056"}}, "geometry": {"type": "Point", "coordinates": [13.959183455577739, -50.82956542834749]}}]}